{"type": "FeatureCollection", "features": [ {"type": "Feature", "properties": {"norad_id": 28649, "name": "IRS-P5 (CARTOSAT-1)", "group": "resource", "lat": 68.30674795613366, "lon": -140.2893786299941, "alt_km": 589.7030234000867, "timestamp": "2025-12-20T03:42:47.048583+00:00", "meta": {"OBJECT_NAME": "IRS-P5 (CARTOSAT-1)", "OBJECT_ID": "2005-017A", "EPOCH": "2025-12-19T12:43:05.760192", "MEAN_MOTION": 14.90426279, "ECCENTRICITY": 8.32e-05, "INCLINATION": 97.5486, "RA_OF_ASC_NODE": 19.6421, "ARG_OF_PERICENTER": 50.2507, "MEAN_ANOMALY": 309.8785, "EPHEMERIS_TYPE": 0, "CLASSIFICATION_TYPE": "U", "NORAD_CAT_ID": 28649, "ELEMENT_SET_NO": 999, "REV_AT_EPOCH": 11705, "BSTAR": 0.00011213, "MEAN_MOTION_DOT": 1.04e-05, "MEAN_MOTION_DDOT": 0}, "tle": {"line1": "1 28649U 05017A   25353.52992778  .00001040  00000+0  11213-3 0  9994", "line2": "2 28649  97.5486  19.6421 0000832  50.2507 309.8785 14.90426279117053"}}, "geometry": {"type": "Point", "coordinates": [-140.2893786299941, 68.30674795613366]}}, {"type": "Feature", "properties": {"norad_id": 28893, "name": "SINAH 1", "group": "resource", "lat": 59.79880619926169, "lon": -42.81393013584991, "alt_km": 663.5805960543639, "timestamp": "2025-12-20T03:42:47.048594+00:00", "meta": {"OBJECT_NAME": "SINAH 1", "OBJECT_ID": "2005-043D", "EPOCH": "2025-12-19T18:58:11.868096", "MEAN_MOTION": 14.63969456, "ECCENTRICITY": 0.0015618, "INCLINATION": 98.2608, "RA_OF_ASC_NODE": 122.3666, "ARG_OF_PERICENTER": 116.3353, "MEAN_ANOMALY": 243.9455, "EPHEMERIS_TYPE": 0, "CLASSIFICATION_TYPE": "U", "NORAD_CAT_ID": 28893, "ELEMENT_SET_NO": 999, "REV_AT_EPOCH": 7427, "BSTAR": 6.6157e-05, "MEAN_MOTION_DOT": 2.98e-06, "MEAN_MOTION_DDOT": 0}, "tle": {"line1": "1 28893U 05043D   25353.79041514  .00000298  00000+0  66157-4 0  9998", "line2": "2 28893  98.2608 122.3666 0015618 116.3353 243.9455 14.63969456 74279"}}, "geometry": {"type": "Point", "coordinates": [-42.81393013584991, 59.79880619926169]}}, {"type": "Feature", "properties": {"norad_id": 29079, "name": "EROS B", "group": "resource", "lat": 58.617366660537655, "lon": 98.88260456413525, "alt_km": 352.58854658848304, "timestamp": "2025-12-20T03:42:47.048618+00:00", "meta": {"OBJECT_NAME": "EROS B", "OBJECT_ID": "2006-014A", "EPOCH": "2025-12-19T18:17:08.688768", "MEAN_MOTION": 15.7042992, "ECCENTRICITY": 0.0003493, "INCLINATION": 97.3469, "RA_OF_ASC_NODE": 110.6817, "ARG_OF_PERICENTER": 311.2616, "MEAN_ANOMALY": 48.8346, "EPHEMERIS_TYPE": 0, "CLASSIFICATION_TYPE": "U", "NORAD_CAT_ID": 29079, "ELEMENT_SET_NO": 999, "REV_AT_EPOCH": 9190, "BSTAR": 0.001045, "MEAN_MOTION_DOT": 0.00129295, "MEAN_MOTION_DDOT": 0}, "tle": {"line1": "1 29079U 06014A   25353.76190612  .00129295  00000+0  10450-2 0  9997", "line2": "2 29079  97.3469 110.6817 0003493 311.2616  48.8346 15.70429920 91901"}}, "geometry": {"type": "Point", "coordinates": [98.88260456413525, 58.617366660537655]}}, {"type": "Feature", "properties": {"norad_id": 29228, "name": "RESURS-DK 1", "group": "resource", "lat": -68.1932700689453, "lon": -31.319046966909657, "alt_km": 531.4452959604168, "timestamp": "2025-12-20T03:42:47.048631+00:00", "meta": {"OBJECT_NAME": "RESURS-DK 1", "OBJECT_ID": "2006-021A", "EPOCH": "2025-12-19T17:02:08.742624", "MEAN_MOTION": 15.12197286, "ECCENTRICITY": 0.0006864, "INCLINATION": 69.9339, "RA_OF_ASC_NODE": 83.8253, "ARG_OF_PERICENTER": 253.3624, "MEAN_ANOMALY": 106.6789, "EPHEMERIS_TYPE": 0, "CLASSIFICATION_TYPE": "U", "NORAD_CAT_ID": 29228, "ELEMENT_SET_NO": 999, "REV_AT_EPOCH": 7543, "BSTAR": 0.00011373, "MEAN_MOTION_DOT": 1.861e-05, "MEAN_MOTION_DDOT": 0}, "tle": {"line1": "1 29228U 06021A   25353.70982341  .00001861  00000+0  11373-3 0  9997", "line2": "2 29228  69.9339  83.8253 0006864 253.3624 106.6789 15.12197286 75430"}}, "geometry": {"type": "Point", "coordinates": [-31.319046966909657, -68.1932700689453]}}, {"type": "Feature", "properties": {"norad_id": 29268, "name": "ARIRANG-2 (KOMPSAT-2)", "group": "resource", "lat": 38.05365553034598, "lon": 176.08555108696564, "alt_km": 679.778981948316, "timestamp": "2025-12-20T03:42:47.048642+00:00", "meta": {"OBJECT_NAME": "ARIRANG-2 (KOMPSAT-2)", "OBJECT_ID": "2006-031A", "EPOCH": "2025-12-19T19:55:52.364352", "MEAN_MOTION": 14.64500003, "ECCENTRICITY": 0.0013207, "INCLINATION": 97.8254, "RA_OF_ASC_NODE": 181.9574, "ARG_OF_PERICENTER": 284.8523, "MEAN_ANOMALY": 205.1243, "EPHEMERIS_TYPE": 0, "CLASSIFICATION_TYPE": "U", "NORAD_CAT_ID": 29268, "ELEMENT_SET_NO": 999, "REV_AT_EPOCH": 3522, "BSTAR": 7.6553e-05, "MEAN_MOTION_DOT": 3.61e-06, "MEAN_MOTION_DDOT": 0}, "tle": {"line1": "1 29268U 06031A   25353.83046718  .00000361  00000+0  76553-4 0  9991", "line2": "2 29268  97.8254 181.9574 0013207 284.8523 205.1243 14.64500003 35226"}}, "geometry": {"type": "Point", "coordinates": [176.08555108696564, 38.05365553034598]}}, {"type": "Feature", "properties": {"norad_id": 29709, "name": "LAPAN-TUBSAT", "group": "resource", "lat": 1.984565500958348, "lon": 164.74726055934377, "alt_km": 619.7056597931314, "timestamp": "2025-12-20T03:42:47.048652+00:00", "meta": {"OBJECT_NAME": "LAPAN-TUBSAT", "OBJECT_ID": "2007-001A", "EPOCH": "2025-12-19T20:27:01.583424", "MEAN_MOTION": 14.85678857, "ECCENTRICITY": 0.0013428, "INCLINATION": 98.1251, "RA_OF_ASC_NODE": 344.1548, "ARG_OF_PERICENTER": 53.0013, "MEAN_ANOMALY": 307.2428, "EPHEMERIS_TYPE": 0, "CLASSIFICATION_TYPE": "U", "NORAD_CAT_ID": 29709, "ELEMENT_SET_NO": 999, "REV_AT_EPOCH": 2452, "BSTAR": 2.5947e-05, "MEAN_MOTION_DOT": 1.68e-06, "MEAN_MOTION_DDOT": 0}, "tle": {"line1": "1 29709U 07001A   25353.85210166  .00000168  00000+0  25947-4 0  9997", "line2": "2 29709  98.1251 344.1548 0013428  53.0013 307.2428 14.85678857 24522"}}, "geometry": {"type": "Point", "coordinates": [164.74726055934377, 1.984565500958348]}}, {"type": "Feature", "properties": {"norad_id": 31113, "name": "HAIYANG-1B", "group": "resource", "lat": 44.08981176136181, "lon": -30.034872499373005, "alt_km": 775.9137785784051, "timestamp": "2025-12-20T03:42:47.048663+00:00", "meta": {"OBJECT_NAME": "HAIYANG-1B", "OBJECT_ID": "2007-010A", "EPOCH": "2025-12-19T12:24:07.786656", "MEAN_MOTION": 14.30967225, "ECCENTRICITY": 0.0013939, "INCLINATION": 98.332, "RA_OF_ASC_NODE": 337.5151, "ARG_OF_PERICENTER": 18.7934, "MEAN_ANOMALY": 341.3762, "EPHEMERIS_TYPE": 0, "CLASSIFICATION_TYPE": "U", "NORAD_CAT_ID": 31113, "ELEMENT_SET_NO": 999, "REV_AT_EPOCH": 97493, "BSTAR": 4.3711e-05, "MEAN_MOTION_DOT": 7.3e-07, "MEAN_MOTION_DDOT": 0}, "tle": {"line1": "1 31113U 07010A   25353.51675679  .00000073  00000+0  43711-4 0  9990", "line2": "2 31113  98.3320 337.5151 0013939  18.7934 341.3762 14.30967225974935"}}, "geometry": {"type": "Point", "coordinates": [-30.034872499373005, 44.08981176136181]}}, {"type": "Feature", "properties": {"norad_id": 31598, "name": "COSMO-SKYMED 1", "group": "resource", "lat": 42.74830272216011, "lon": 172.2436779505224, "alt_km": 575.5064983362145, "timestamp": "2025-12-20T03:42:47.048674+00:00", "meta": {"OBJECT_NAME": "COSMO-SKYMED 1", "OBJECT_ID": "2007-023A", "EPOCH": "2025-12-19T19:29:34.955232", "MEAN_MOTION": 14.95817648, "ECCENTRICITY": 0.0001581, "INCLINATION": 97.8836, "RA_OF_ASC_NODE": 179.2577, "ARG_OF_PERICENTER": 85.3043, "MEAN_ANOMALY": 274.8358, "EPHEMERIS_TYPE": 0, "CLASSIFICATION_TYPE": "U", "NORAD_CAT_ID": 31598, "ELEMENT_SET_NO": 999, "REV_AT_EPOCH": 296, "BSTAR": 0.00027447, "MEAN_MOTION_DOT": 3.005e-05, "MEAN_MOTION_DDOT": 0}, "tle": {"line1": "1 31598U 07023A   25353.81221013  .00003005  00000+0  27447-3 0  9998", "line2": "2 31598  97.8836 179.2577 0001581  85.3043 274.8358 14.95817648  2962"}}, "geometry": {"type": "Point", "coordinates": [172.2436779505224, 42.74830272216011]}}, {"type": "Feature", "properties": {"norad_id": 31698, "name": "TERRASAR-X", "group": "resource", "lat": -38.22563227790267, "lon": 5.339355921034615, "alt_km": 515.7086034105723, "timestamp": "2025-12-20T03:42:47.048684+00:00", "meta": {"OBJECT_NAME": "TERRASAR-X", "OBJECT_ID": "2007-026A", "EPOCH": "2025-12-19T12:04:27.729408", "MEAN_MOTION": 15.19152518, "ECCENTRICITY": 0.0001854, "INCLINATION": 97.4454, "RA_OF_ASC_NODE": 358.785, "ARG_OF_PERICENTER": 93.3795, "MEAN_ANOMALY": 266.7652, "EPHEMERIS_TYPE": 0, "CLASSIFICATION_TYPE": "U", "NORAD_CAT_ID": 31698, "ELEMENT_SET_NO": 999, "REV_AT_EPOCH": 2594, "BSTAR": 3.366e-05, "MEAN_MOTION_DOT": 6.4e-06, "MEAN_MOTION_DDOT": 0}, "tle": {"line1": "1 31698U 07026A   25353.50309872  .00000640  00000+0  33660-4 0  9995", "line2": "2 31698  97.4454 358.7850 0001854  93.3795 266.7652 15.19152518 25944"}}, "geometry": {"type": "Point", "coordinates": [5.339355921034615, -38.22563227790267]}}, {"type": "Feature", "properties": {"norad_id": 32060, "name": "WORLDVIEW-1 (WV-1)", "group": "resource", "lat": 66.74214415243901, "lon": -50.906328616612925, "alt_km": 484.2414737951849, "timestamp": "2025-12-20T03:42:47.048694+00:00", "meta": {"OBJECT_NAME": "WORLDVIEW-1 (WV-1)", "OBJECT_ID": "2007-041A", "EPOCH": "2025-12-19T06:44:54.477312", "MEAN_MOTION": 15.24792319, "ECCENTRICITY": 9.53e-05, "INCLINATION": 97.3841, "RA_OF_ASC_NODE": 110.6704, "ARG_OF_PERICENTER": 118.344, "MEAN_ANOMALY": 241.7894, "EPHEMERIS_TYPE": 0, "CLASSIFICATION_TYPE": "U", "NORAD_CAT_ID": 32060, "ELEMENT_SET_NO": 999, "REV_AT_EPOCH": 1547, "BSTAR": 0.00026921, "MEAN_MOTION_DOT": 6.606e-05, "MEAN_MOTION_DDOT": 0}, "tle": {"line1": "1 32060U 07041A   25353.28118608  .00006606  00000+0  26921-3 0  9995", "line2": "2 32060  97.3841 110.6704 0000953 118.3440 241.7894 15.24792319 15477"}}, "geometry": {"type": "Point", "coordinates": [-50.906328616612925, 66.74214415243901]}}]}